OBJECT_NAME,OBJECT_ID,EPOCH,MEAN_MOTION,ECCENTRICITY,INCLINATION,RA_OF_ASC_NODE,ARG_OF_PERICENTER,MEAN_ANOMALY,EPHEMERIS_TYPE,CLASSIFICATION_TYPE,NORAD_CAT_ID,ELEMENT_SET_NO,REV_AT_EPOCH,BSTAR,MEAN_MOTION_DOT,MEAN_MOTION_DDOT
DMSP 5D-3 F16 (USA 172),2003-048A,2026-06-15T15:01:59.605248,14.14483093,.00076903,98.9891,190.4444,144.3127,8.3397,0,U,28054,999,16926,.25438543E-4,.3E-7,0
METEOSAT-9 (MSG-2),2005-049B,2026-06-15T14:38:11.053824,1.00271317,.00015607,9.3580,54.1835,343.4435,131.4501,0,U,28912,999,698,0,.119E-5,0
DMSP 5D-3 F17 (USA 191),2006-050A,2026-06-15T13:02:24.256320,14.14992976,.00112082,98.7378,173.1471,63.7008,296.5316,0,U,29522,999,1219,.38330803E-4,.31E-6,0
FENGYUN 3A,2008-026A,2026-06-15T13:36:43.901856,14.19570760,.00095345,98.6883,107.4306,127.8836,232.3204,0,U,32958,999,93517,.4251299E-4,.46E-6,0
GOES 14,2009-033A,2026-06-15T13:44:19.279104,1.00111281,.00017169,1.6861,83.0618,10.8891,158.7461,0,U,35491,999,657,0,-.284E-5,0
DMSP 5D-3 F18 (USA 210),2009-057A,2026-06-15T14:02:51.861408,14.14895882,.00098741,98.9037,147.3579,254.6585,105.3497,0,U,35951,999,85936,.12626416E-3,.199E-5,0
EWS-G2 (GOES 15),2010-008A,2026-06-15T13:21:50.423040,1.00275734,.00053935,1.2735,82.8801,42.4304,42.6912,0,U,36411,999,5962,0,.19E-6,0
COMS 1,2010-032A,2026-06-14T21:46:51.833568,0.99162575,.00114404,4.7990,75.3807,11.6720,225.4123,0,U,36744,999,5106,0,.23E-6,0
FENGYUN 3B,2010-059A,2026-06-15T14:48:33.492384,14.14842791,.00218134,98.9624,212.6248,188.5099,286.1963,0,U,37214,999,80720,.205402E-3,.352E-5,0
SUOMI NPP,2011-061A,2026-06-15T13:52:53.040288,14.19517033,.00016266,98.7953,107.4654,10.8216,349.2995,0,U,37849,999,75821,.4865581E-4,.58E-6,0
METEOSAT-10 (MSG-3),2012-035B,2026-06-15T07:55:49.251360,1.00276454,.00014363,4.6674,61.0286,327.6157,354.2543,0,U,38552,999,5083,0,-.4E-7,0
METOP-B,2012-049A,2026-06-15T13:41:41.949024,14.21432322,.00023302,98.6505,218.1020,23.6447,336.4837,0,U,38771,999,71303,.61506379E-4,.91E-6,0
INSAT-3D,2013-038B,2026-06-15T14:44:56.440896,1.00269836,.00005505,1.9222,82.5599,308.9364,223.1525,0,U,39216,999,4706,0,-.338E-5,0
FENGYUN 3C,2013-052A,2026-06-15T15:07:41.775168,14.15754665,.00153277,98.4986,140.5766,31.9341,328.2759,0,U,39260,999,65834,.46729058E-4,.5E-6,0
METEOR-M 2,2014-037A,2026-06-15T14:19:42.741408,14.21460298,.00068436,98.5106,142.3915,48.1166,312.0595,0,U,40069,999,61909,-.71198707E-4,-.198E-5,0
HIMAWARI-8,2014-060A,2026-06-15T13:43:41.839392,1.00272096,.0000974,0.0159,345.4066,102.0786,162.9574,0,U,40267,999,4274,0,-.273E-5,0
FENGYUN 2G,2014-090A,2026-06-14T18:42:51.437664,1.00273198,.0003942,5.6329,72.8457,155.9654,54.6513,0,U,40367,999,4197,0,-.301E-5,0
METEOSAT-11 (MSG-4),2015-034A,2026-06-15T06:15:43.595136,1.00279763,.0001755,3.1967,71.1216,10.4371,285.5308,0,U,40732,999,719,0,.67E-6,0
ELEKTRO-L 2,2015-074A,2026-06-14T23:18:10.799712,1.00270489,.00008741,6.6873,70.5494,244.3322,283.4193,0,U,41105,999,3848,0,-.118E-5,0
SENTINEL-3A,2016-011A,2026-06-15T14:29:08.457504,14.26739563,.00013955,98.6249,234.0099,102.2432,257.8905,0,U,41335,999,53783,.54955056E-4,.89E-6,0
INSAT-3DR,2016-054A,2026-06-15T11:42:03.823200,1.00270796,.00106424,0.1021,86.5724,187.2831,239.4059,0,U,41752,999,3580,0,-.74E-6,0
HIMAWARI-9,2016-064A,2026-06-15T13:43:49.326816,1.00269554,.00008242,0.0518,143.5801,357.0812,109.9131,0,U,41836,999,3519,0,-.273E-5,0
GOES 16,2016-071A,2026-06-15T10:27:20.495232,1.00270900,.00002021,0.3367,85.5294,301.4500,288.8852,0,U,41866,999,3508,0,-.88E-6,0
FENGYUN 4A,2016-077A,2026-06-15T15:23:22.936416,1.00269304,.00087034,2.3177,80.2972,153.2799,24.9616,0,U,41882,999,3491,0,-.356E-5,0
CYGFM05,2016-078A,2026-06-15T13:49:39.080928,15.56612974,.00068464,34.9572,271.2581,134.5757,225.5527,0,U,41884,999,52850,.26981683E-3,.1986E-3,0
CYGFM04,2016-078B,2026-06-15T13:14:31.457472,15.61438401,.00064706,34.9319,239.1923,180.1806,179.8918,0,U,41885,999,52874,.27956656E-3,.24752E-3,0
CYGFM02,2016-078C,2026-06-15T13:20:00.687264,15.64415610,.00074807,34.9398,233.7502,181.3751,178.6956,0,U,41886,999,52891,.2907531E-3,.2897E-3,0
CYGFM01,2016-078D,2026-06-15T12:02:06.088704,15.57284855,.00066276,34.9401,272.8236,127.5289,232.6038,0,U,41887,999,52844,.27581775E-3,.20823E-3,0
CYGFM08,2016-078E,2026-06-15T12:40:04.007424,15.59947079,.0008138,34.9428,252.2716,161.1342,198.9686,0,U,41888,999,52871,.27848408E-3,.23283E-3,0
CYGFM07,2016-078G,2026-06-15T13:13:31.437984,15.60047720,.0006882,34.9440,240.4604,178.8256,181.2486,0,U,41890,999,52874,.27153784E-3,.22778E-3,0
CYGFM03,2016-078H,2026-06-15T12:31:45.799104,15.60039625,.00062744,34.9396,242.5913,166.2351,193.8546,0,U,41891,999,52871,.28060745E-3,.23531E-3,0
